[Satellite]
VERSION=1.1
NAME=COSMOS 2242
NICKNAME=COSMOS 2242
TLE1=1 22626U 93024A   15054.68727021  .00001203  00000-0  13229-3 0  9990
TLE2=2 22626  82.5219 117.5331 0020073  47.3616 312.9289 14.86674448180620
